start=new Date('2023-02-15T00:00:00.000Z').valueOf();
sats=[{"SEMIMAJOR_AXIS":"6917.970","APOAPSIS":"540.884","MEAN_ANOMALY":"285.3961","REV_AT_EPOCH":"1708","TLE_LINE2":"2 54207  53.2178 336.7752 0001517  74.7199 285.3961 15.08810799 17088","EPOCH":"2023-02-14T18:20:01.946688","NORAD_CAT_ID":"54207","OBJECT_ID":"2022-141BC","MEAN_MOTION_DOT":"-0.00000469","MEAN_MOTION":"15.08810799","GP_ID":"225436493","RCS_SIZE":"LARGE","LAUNCH_DATE":"2022-10-28","SITE":"AFWTR","RA_OF_ASC_NODE":"336.7752","BSTAR":"-0.00001138100000","FILE":"3792084","ECCENTRICITY":"0.00015170","ELEMENT_SET_NO":"999","ARG_OF_PERICENTER":"74.7199","CENTER_NAME":"EARTH","OBJECT_NAME":"STARLINK-5262","REF_FRAME":"TEME","TLE_LINE1":"1 54207U 22141BC  23045.76391142 -.00000469  00000-0 -11381-4 0  9994","CLASSIFICATION_TYPE":"U","MEAN_MOTION_DDOT":"0.0000000000000","OBJECT_TYPE":"PAYLOAD","PERIOD":"95.439","MEAN_ELEMENT_THEORY":"SGP4","DECAY_DATE":null,"TIME_SYSTEM":"UTC","COUNTRY_CODE":"US","PERIAPSIS":"538.785","INCLINATION":"53.2178","EPHEMERIS_TYPE":"0"},{"SITE":"AFWTR","RA_OF_ASC_NODE":"322.2072","LAUNCH_DATE":"2022-10-28","MEAN_MOTION":"15.73232545","GP_ID":"225395380","RCS_SIZE":"LARGE","ELEMENT_SET_NO":"999","ARG_OF_PERICENTER":"115.0598","ECCENTRICITY":"0.00006540","FILE":"3791349","BSTAR":"0.00033296000000","REV_AT_EPOCH":"1726","TLE_LINE2":"2 54208  53.2143 322.2072 0000654 115.0598 245.0490 15.73232545 17268","APOAPSIS":"350.107","MEAN_ANOMALY":"245.0490","SEMIMAJOR_AXIS":"6727.802","MEAN_MOTION_DOT":"0.00046432","OBJECT_ID":"2022-141BD","EPOCH":"2023-02-14T11:56:08.173248","NORAD_CAT_ID":"54208","COUNTRY_CODE":"US","PERIAPSIS":"349.227","TIME_SYSTEM":"UTC","EPHEMERIS_TYPE":"0","INCLINATION":"53.2143","TLE_LINE1":"1 54208U 22141BD  23045.49731682  .00046432  00000-0  33296-3 0  9998","CLASSIFICATION_TYPE":"U","CENTER_NAME":"EARTH","OBJECT_NAME":"STARLINK-5255","REF_FRAME":"TEME","DECAY_DATE":null,"MEAN_ELEMENT_THEORY":"SGP4","PERIOD":"91.531","MEAN_MOTION_DDOT":"0.0000000000000","OBJECT_TYPE":"PAYLOAD"},{"INCLINATION":"53.2102","EPHEMERIS_TYPE":"0","PERIAPSIS":"537.112","COUNTRY_CODE":"US","TIME_SYSTEM":"UTC","PERIOD":"95.401","MEAN_MOTION_DDOT":"0.0000000000000","OBJECT_TYPE":"PAYLOAD","DECAY_DATE":null,"MEAN_ELEMENT_THEORY":"SGP4","REF_FRAME":"TEME","OBJECT_NAME":"STARLINK-5259","CENTER_NAME":"EARTH","CLASSIFICATION_TYPE":"U","TLE_LINE1":"1 54209U 22141BE  23045.83334491 -.00748237  00000-0 -49870-1 0  9991","FILE":"3792084","BSTAR":"-0.04987000000000","ARG_OF_PERICENTER":"89.8672","ELEMENT_SET_NO":"999","ECCENTRICITY":"0.00012840","LAUNCH_DATE":"2022-10-28","GP_ID":"225434992","RCS_SIZE":"LARGE","MEAN_MOTION":"15.09411346","RA_OF_ASC_NODE":"326.5160","SITE":"AFWTR","NORAD_CAT_ID":"54209","EPOCH":"2023-02-14T20:00:01.000224","OBJECT_ID":"2022-141BE","MEAN_MOTION_DOT":"-0.00748237","MEAN_ANOMALY":"262.3564","APOAPSIS":"538.888","SEMIMAJOR_AXIS":"6916.135","TLE_LINE2":"2 54209  53.2102 326.5160 0001284  89.8672 262.3564 15.09411346  1309","REV_AT_EPOCH":"130"},{"TLE_LINE1":"1 54758U 22175A   23045.83334491  .00037836  00000-0  23844-2 0  9995","CLASSIFICATION_TYPE":"U","CENTER_NAME":"EARTH","OBJECT_NAME":"STARLINK-5464","REF_FRAME":"TEME","MEAN_ELEMENT_THEORY":"SGP4","DECAY_DATE":null,"OBJECT_TYPE":"PAYLOAD","MEAN_MOTION_DDOT":"0.0000000000000","PERIOD":"95.439","TIME_SYSTEM":"UTC","COUNTRY_CODE":"US","PERIAPSIS":"539.001","EPHEMERIS_TYPE":"0","INCLINATION":"53.2160","TLE_LINE2":"2 54758  53.2160  22.1006 0001193  95.0656   9.4311 15.08813510  1308","REV_AT_EPOCH":"130","SEMIMAJOR_AXIS":"6917.961","APOAPSIS":"540.652","MEAN_ANOMALY":"9.4311","OBJECT_ID":"2022-175A","MEAN_MOTION_DOT":"0.00037836","NORAD_CAT_ID":"54758","EPOCH":"2023-02-14T20:00:01.000224","SITE":"AFETR","RA_OF_ASC_NODE":"22.1006","MEAN_MOTION":"15.08813510","RCS_SIZE":"LARGE","GP_ID":"225436054","LAUNCH_DATE":"2022-12-17","ECCENTRICITY":"0.00011930","ELEMENT_SET_NO":"999","ARG_OF_PERICENTER":"95.0656","BSTAR":"0.00238440000000","FILE":"3792084"},{"TIME_SYSTEM":"UTC","PERIAPSIS":"534.811","COUNTRY_CODE":"US","INCLINATION":"53.2105","EPHEMERIS_TYPE":"0","CENTER_NAME":"EARTH","OBJECT_NAME":"STARLINK-5215","REF_FRAME":"TEME","CLASSIFICATION_TYPE":"U","TLE_LINE1":"1 54759U 22175B   23045.83334491 -.00894156  00000-0 -58505-1 0  9995","MEAN_MOTION_DDOT":"0.0000000000000","OBJECT_TYPE":"PAYLOAD","PERIOD":"95.357","MEAN_ELEMENT_THEORY":"SGP4","DECAY_DATE":null,"GP_ID":"225436794","RCS_SIZE":"LARGE","MEAN_MOTION":"15.10121016","LAUNCH_DATE":"2022-12-17","RA_OF_ASC_NODE":"21.8629","SITE":"AFETR","BSTAR":"-0.05850500000000","FILE":"3792084","ECCENTRICITY":"0.00014780","ARG_OF_PERICENTER":"90.5054","ELEMENT_SET_NO":"999","SEMIMAJOR_AXIS":"6913.968","MEAN_ANOMALY":"132.5908","APOAPSIS":"536.854","REV_AT_EPOCH":"130","TLE_LINE2":"2 54759  53.2105  21.8629 0001478  90.5054 132.5908 15.10121016  1309","NORAD_CAT_ID":"54759","EPOCH":"2023-02-14T20:00:01.000224","MEAN_MOTION_DOT":"-0.00894156","OBJECT_ID":"2022-175B"},{"MEAN_ELEMENT_THEORY":"SGP4","DECAY_DATE":null,"OBJECT_TYPE":"PAYLOAD","MEAN_MOTION_DDOT":"0.0000000000000","PERIOD":"95.437","TLE_LINE1":"1 54760U 22175C   23045.74464046 -.00000601  00000-0 -19645-4 0  9996","CLASSIFICATION_TYPE":"U","OBJECT_NAME":"STARLINK-5220","REF_FRAME":"TEME","CENTER_NAME":"EARTH","EPHEMERIS_TYPE":"0","INCLINATION":"53.2193","TIME_SYSTEM":"UTC","COUNTRY_CODE":"US","PERIAPSIS":"538.851","OBJECT_ID":"2022-175C","MEAN_MOTION_DOT":"-0.00000601","NORAD_CAT_ID":"54760","EPOCH":"2023-02-14T17:52:16.935744","TLE_LINE2":"2 54760  53.2193  27.4493 0001264  82.7962 277.3173 15.08846469 10993","REV_AT_EPOCH":"1099","SEMIMAJOR_AXIS":"6917.861","APOAPSIS":"540.600","MEAN_ANOMALY":"277.3173","ECCENTRICITY":"0.00012640","ELEMENT_SET_NO":"999","ARG_OF_PERICENTER":"82.7962","BSTAR":"-0.00001964500000","FILE":"3792084","RA_OF_ASC_NODE":"27.4493","SITE":"AFETR","MEAN_MOTION":"15.08846469","GP_ID":"225435552","RCS_SIZE":"LARGE","LAUNCH_DATE":"2022-12-17"},{"SITE":"AFETR","RA_OF_ASC_NODE":"28.9583","GP_ID":"225395191","RCS_SIZE":"LARGE","MEAN_MOTION":"15.08850133","LAUNCH_DATE":"2022-12-17","ECCENTRICITY":"0.00012150","ARG_OF_PERICENTER":"94.5215","ELEMENT_SET_NO":"999","BSTAR":"0.00006883600000","FILE":"3791349","REV_AT_EPOCH":"1094","TLE_LINE2":"2 54761  53.2200  28.9583 0001215  94.5215 265.5916 15.08850133 10949","SEMIMAJOR_AXIS":"6917.849","MEAN_ANOMALY":"265.5916","APOAPSIS":"540.555","OBJECT_ID":"2022-175D","MEAN_MOTION_DOT":"0.00000808","EPOCH":"2023-02-14T10:00:39.085920","NORAD_CAT_ID":"54761","TIME_SYSTEM":"UTC","PERIAPSIS":"538.874","COUNTRY_CODE":"US","EPHEMERIS_TYPE":"0","INCLINATION":"53.2200","CLASSIFICATION_TYPE":"U","TLE_LINE1":"1 54761U 22175D   23045.41711905  .00000808  00000-0  68836-4 0  9993","REF_FRAME":"TEME","OBJECT_NAME":"STARLINK-5202","CENTER_NAME":"EARTH","MEAN_ELEMENT_THEORY":"SGP4","DECAY_DATE":null,"OBJECT_TYPE":"PAYLOAD","MEAN_MOTION_DDOT":"0.0000000000000","PERIOD":"95.437"},{"TIME_SYSTEM":"UTC","COUNTRY_CODE":"US","PERIAPSIS":"538.794","EPHEMERIS_TYPE":"0","INCLINATION":"53.2167","TLE_LINE1":"1 54762U 22175E   23045.34078676  .00000926  00000-0  76271-4 0  9990","CLASSIFICATION_TYPE":"U","CENTER_NAME":"EARTH","OBJECT_NAME":"STARLINK-5214","REF_FRAME":"TEME","MEAN_ELEMENT_THEORY":"SGP4","DECAY_DATE":null,"MEAN_MOTION_DDOT":"0.0000000000000","OBJECT_TYPE":"PAYLOAD","PERIOD":"95.437","SITE":"AFETR","RA_OF_ASC_NODE":"29.1927","MEAN_MOTION":"15.08841174","GP_ID":"225395441","RCS_SIZE":"LARGE","LAUNCH_DATE":"2022-12-17","ECCENTRICITY":"0.00013700","ELEMENT_SET_NO":"999","ARG_OF_PERICENTER":"79.5178","BSTAR":"0.00007627100000","FILE":"3791349","REV_AT_EPOCH":"1093","TLE_LINE2":"2 54762  53.2167  29.1927 0001370  79.5178 280.5968 15.08841174 10938","SEMIMAJOR_AXIS":"6917.877","APOAPSIS":"540.690","MEAN_ANOMALY":"280.5968","OBJECT_ID":"2022-175E","MEAN_MOTION_DOT":"0.00000926","NORAD_CAT_ID":"54762","EPOCH":"2023-02-14T08:10:43.976064"},{"ARG_OF_PERICENTER":"90.9864","ELEMENT_SET_NO":"999","ECCENTRICITY":"0.00013180","FILE":"3791349","BSTAR":"0.00012534000000","SITE":"AFETR","RA_OF_ASC_NODE":"29.2096","LAUNCH_DATE":"2022-12-17","GP_ID":"225395691","RCS_SIZE":"LARGE","MEAN_MOTION":"15.08846126","OBJECT_ID":"2022-175F","MEAN_MOTION_DOT":"0.00001708","EPOCH":"2023-02-14T08:14:39.499872","NORAD_CAT_ID":"54763","TLE_LINE2":"2 54763  53.2172  29.2096 0001318  90.9864 269.1279 15.08846126 10934","REV_AT_EPOCH":"1093","MEAN_ANOMALY":"269.1279","APOAPSIS":"540.638","SEMIMAJOR_AXIS":"6917.862","EPHEMERIS_TYPE":"0","INCLINATION":"53.2172","PERIAPSIS":"538.815","COUNTRY_CODE":"US","TIME_SYSTEM":"UTC","DECAY_DATE":null,"MEAN_ELEMENT_THEORY":"SGP4","PERIOD":"95.437","MEAN_MOTION_DDOT":"0.0000000000000","OBJECT_TYPE":"PAYLOAD","CLASSIFICATION_TYPE":"U","TLE_LINE1":"1 54763U 22175F   23045.34351273  .00001708  00000-0  12534-3 0  9998","OBJECT_NAME":"STARLINK-5191","CENTER_NAME":"EARTH","REF_FRAME":"TEME"},{"OBJECT_ID":"2022-175G","MEAN_MOTION_DOT":"-0.00002280","NORAD_CAT_ID":"54764","EPOCH":"2023-02-14T16:00:59.057280","REV_AT_EPOCH":"1098","TLE_LINE2":"2 54764  53.2181  27.6702 0000879  75.3553 284.7537 15.08840835 10980","SEMIMAJOR_AXIS":"6917.878","MEAN_ANOMALY":"284.7537","APOAPSIS":"540.351","ECCENTRICITY":"0.00008790","ARG_OF_PERICENTER":"75.3553","ELEMENT_SET_NO":"999","BSTAR":"-0.00012520000000","FILE":"3792084","RA_OF_ASC_NODE":"27.6702","SITE":"AFETR","GP_ID":"225435053","RCS_SIZE":"LARGE","MEAN_MOTION":"15.08840835","LAUNCH_DATE":"2022-12-17","MEAN_ELEMENT_THEORY":"SGP4","DECAY_DATE":null,"OBJECT_TYPE":"PAYLOAD","MEAN_MOTION_DDOT":"0.0000000000000","PERIOD":"95.438","CLASSIFICATION_TYPE":"U","TLE_LINE1":"1 54764U 22175G   23045.66735020 -.00002280  00000-0 -12520-3 0  9993","OBJECT_NAME":"STARLINK-5458","REF_FRAME":"TEME","CENTER_NAME":"EARTH","EPHEMERIS_TYPE":"0","INCLINATION":"53.2181","TIME_SYSTEM":"UTC","PERIAPSIS":"539.135","COUNTRY_CODE":"US"}];
